[{"OBJECT_NAME":"LAPAN-A3","OBJECT_ID":"2016-040E","EPOCH":"2026-03-09T23:01:57.724896","MEAN_MOTION":15.3238951,"ECCENTRICITY":0.00109839,"INCLINATION":97.1488,"RA_OF_ASC_NODE":68.4254,"ARG_OF_PERICENTER":22.062,"MEAN_ANOMALY":338.1093,"EPHEMERIS_TYPE":0,"CLASSIFICATION_TYPE":"U","NORAD_CAT_ID":41603,"ELEMENT_SET_NO":999,"REV_AT_EPOCH":53961,"BSTAR":0.00017567445,"MEAN_MOTION_DOT":5.428e-5,"MEAN_MOTION_DDOT":0},{"OBJECT_NAME":"STARLINK-32454","OBJECT_ID":"2024-224D","EPOCH":"2026-03-09T22:56:15.709632","MEAN_MOTION":15.27634664,"ECCENTRICITY":0.00010506,"INCLINATION":42.9946,"RA_OF_ASC_NODE":164.1288,"ARG_OF_PERICENTER":319.9086,"MEAN_ANOMALY":40.1688,"EPHEMERIS_TYPE":0,"CLASSIFICATION_TYPE":"U","NORAD_CAT_ID":62142,"ELEMENT_SET_NO":999,"REV_AT_EPOCH":7243,"BSTAR":0.0015060992,"MEAN_MOTION_DOT":0.00041485,"MEAN_MOTION_DDOT":0}]
